SL-3 R/B                
1 13403U 82079B   25351.86913173  .00004654  00000+0  19116-3 0  9990
2 13403  81.1472 289.6139 0027092  82.5705 277.8604 15.23646100365232
SL-14 R/B               
1 13553U 82092B   25351.92136272  .00000405  00000+0  42866-4 0  9994
2 13553  82.5677 217.8661 0019532 208.9395 161.6669 14.86560624316783
SL-3 R/B                
1 13819U 83010B   25351.76371813  .00011275  00000+0  24883-3 0  9999
2 13819  81.1046 102.4860 0016900 333.4666  26.5710 15.43591162345293
SL-3 R/B                
1 14208U 83075B   25351.86806971  .00008834  00000+0  25033-3 0  9997
2 14208  97.6098 348.5241 0023313 157.4592 202.7681 15.36237549317583
COSMOS 1536             
1 14699U 84013A   25351.80116938  .00004679  00000+0  19969-3 0  9999
2 14699  82.5445 189.1445 0013877 206.5789 153.4738 15.22573326260155
SL-14 R/B               
1 14820U 84027B   25351.87554237  .00000456  00000+0  49470-4 0  9995
2 14820  82.5414 321.7395 0016491 242.1758 117.7788 14.85879979235489
SL-8 R/B                
1 15483U 85006B   25351.92199669  .00000193  00000+0  72881-4 0  9999
2 15483  74.0465  51.6007 0018899 342.6933 189.8770 14.37724073142277
SL-12 R/B(2)            
1 15772U 85042D   25351.88243947  .00000104  00000+0  68255-4 0  9996
2 15772  71.1080 260.5557 0037469 253.9940 173.1144 14.21953466102760
SL-14 R/B               
1 15945U 85069B   25351.75060087  .00000460  00000+0  49246-4 0  9999
2 15945  82.5272 101.9923 0020324 103.0757 257.2730 14.86330407160662
SL-16 R/B               
1 16182U 85097B   25351.93428713  .00000154  00000+0  10135-3 0  9992
2 16182  71.0037 312.6669 0007040   2.4803  58.6525 14.16587110 75657
SL-14 R/B               
1 16496U 86006B   25351.68061436  .00000518  00000+0  52381-4 0  9992
2 16496  82.5266 336.9017 0076592 183.3468 176.7248 14.86678145137026
COSMOS 1743             
1 16719U 86034A   25351.87592915  .00026463  00000+0  43169-3 0  9993
2 16719  82.5339 159.2554 0004756 231.1924 128.8904 15.52435867167531
