CCSDS_OMM_VERS = 2.0
CREATION_DATE  = 
ORIGINATOR     = 

OBJECT_NAME    = SL-3 R/B
OBJECT_ID      = 1982-079B
CENTER_NAME    = EARTH
REF_FRAME      = TEME
TIME_SYSTEM    = UTC
MEAN_ELEMENT_THEORY = SGP/SGP4

EPOCH          = 2025-12-17T20:51:32.981472
MEAN_MOTION    = 15.23646100
ECCENTRICITY   = .00270923
INCLINATION    = 81.1472
RA_OF_ASC_NODE = 289.6139
ARG_OF_PERICENTER = 82.5705
MEAN_ANOMALY   = 277.8604

EPHEMERIS_TYPE = 0
CLASSIFICATION_TYPE = U
NORAD_CAT_ID   = 13403
ELEMENT_SET_NO = 999
REV_AT_EPOCH   = 36523
BSTAR          = .19115928E-3
MEAN_MOTION_DOT = .4654E-4
MEAN_MOTION_DDOT = 0

CCSDS_OMM_VERS = 2.0
CREATION_DATE  = 
ORIGINATOR     = 

OBJECT_NAME    = SL-14 R/B
OBJECT_ID      = 1982-092B
CENTER_NAME    = EARTH
REF_FRAME      = TEME
TIME_SYSTEM    = UTC
MEAN_ELEMENT_THEORY = SGP/SGP4

EPOCH          = 2025-12-17T22:06:45.739008
MEAN_MOTION    = 14.86560624
ECCENTRICITY   = .00195327
INCLINATION    = 82.5677
RA_OF_ASC_NODE = 217.8661
ARG_OF_PERICENTER = 208.9395
MEAN_ANOMALY   = 161.6669

EPHEMERIS_TYPE = 0
CLASSIFICATION_TYPE = U
NORAD_CAT_ID   = 13553
ELEMENT_SET_NO = 999
REV_AT_EPOCH   = 31678
BSTAR          = .42866101E-4
MEAN_MOTION_DOT = .405E-5
MEAN_MOTION_DDOT = 0

CCSDS_OMM_VERS = 2.0
CREATION_DATE  = 
ORIGINATOR     = 

OBJECT_NAME    = SL-3 R/B
OBJECT_ID      = 1983-010B
CENTER_NAME    = EARTH
REF_FRAME      = TEME
TIME_SYSTEM    = UTC
MEAN_ELEMENT_THEORY = SGP/SGP4

EPOCH          = 2025-12-17T18:19:45.246432
MEAN_MOTION    = 15.43591162
ECCENTRICITY   = .00169001
INCLINATION    = 81.1046
RA_OF_ASC_NODE = 102.4860
ARG_OF_PERICENTER = 333.4666
MEAN_ANOMALY   = 26.5710

EPHEMERIS_TYPE = 0
CLASSIFICATION_TYPE = U
NORAD_CAT_ID   = 13819
ELEMENT_SET_NO = 999
REV_AT_EPOCH   = 34529
BSTAR          = .24883183E-3
MEAN_MOTION_DOT = .11275E-3
MEAN_MOTION_DDOT = 0

CCSDS_OMM_VERS = 2.0
CREATION_DATE  = 
ORIGINATOR     = 

OBJECT_NAME    = SL-3 R/B
OBJECT_ID      = 1983-075B
CENTER_NAME    = EARTH
REF_FRAME      = TEME
TIME_SYSTEM    = UTC
MEAN_ELEMENT_THEORY = SGP/SGP4

EPOCH          = 2025-12-17T20:50:01.222944
MEAN_MOTION    = 15.36237549
ECCENTRICITY   = .00233134
INCLINATION    = 97.6098
RA_OF_ASC_NODE = 348.5241
ARG_OF_PERICENTER = 157.4592
MEAN_ANOMALY   = 202.7681

EPHEMERIS_TYPE = 0
CLASSIFICATION_TYPE = U
NORAD_CAT_ID   = 14208
ELEMENT_SET_NO = 999
REV_AT_EPOCH   = 31758
BSTAR          = .25033156E-3
MEAN_MOTION_DOT = .8834E-4
MEAN_MOTION_DDOT = 0

CCSDS_OMM_VERS = 2.0
CREATION_DATE  = 
ORIGINATOR     = 

OBJECT_NAME    = COSMOS 1536
OBJECT_ID      = 1984-013A
CENTER_NAME    = EARTH
REF_FRAME      = TEME
TIME_SYSTEM    = UTC
MEAN_ELEMENT_THEORY = SGP/SGP4

EPOCH          = 2025-12-17T19:13:41.034432
MEAN_MOTION    = 15.22573326
ECCENTRICITY   = .00138776
INCLINATION    = 82.5445
RA_OF_ASC_NODE = 189.1445
ARG_OF_PERICENTER = 206.5789
MEAN_ANOMALY   = 153.4738

EPHEMERIS_TYPE = 0
CLASSIFICATION_TYPE = U
NORAD_CAT_ID   = 14699
ELEMENT_SET_NO = 999
REV_AT_EPOCH   = 26015
BSTAR          = .19969309E-3
MEAN_MOTION_DOT = .4679E-4
MEAN_MOTION_DDOT = 0

CCSDS_OMM_VERS = 2.0
CREATION_DATE  = 
ORIGINATOR     = 

OBJECT_NAME    = SL-14 R/B
OBJECT_ID      = 1984-027B
CENTER_NAME    = EARTH
REF_FRAME      = TEME
TIME_SYSTEM    = UTC
MEAN_ELEMENT_THEORY = SGP/SGP4

EPOCH          = 2025-12-17T21:00:46.860768
MEAN_MOTION    = 14.85879979
ECCENTRICITY   = .0016491
INCLINATION    = 82.5414
RA_OF_ASC_NODE = 321.7395
ARG_OF_PERICENTER = 242.1758
MEAN_ANOMALY   = 117.7788

EPHEMERIS_TYPE = 0
CLASSIFICATION_TYPE = U
NORAD_CAT_ID   = 14820
ELEMENT_SET_NO = 999
REV_AT_EPOCH   = 23548
BSTAR          = .49470285E-4
MEAN_MOTION_DOT = .456E-5
MEAN_MOTION_DDOT = 0

CCSDS_OMM_VERS = 2.0
CREATION_DATE  = 
ORIGINATOR     = 

OBJECT_NAME    = SL-8 R/B
OBJECT_ID      = 1985-006B
CENTER_NAME    = EARTH
REF_FRAME      = TEME
TIME_SYSTEM    = UTC
MEAN_ELEMENT_THEORY = SGP/SGP4

EPOCH          = 2025-12-17T22:07:40.514016
MEAN_MOTION    = 14.37724073
ECCENTRICITY   = .00188996
INCLINATION    = 74.0465
RA_OF_ASC_NODE = 51.6007
ARG_OF_PERICENTER = 342.6933
MEAN_ANOMALY   = 189.8770

EPHEMERIS_TYPE = 0
CLASSIFICATION_TYPE = U
NORAD_CAT_ID   = 15483
ELEMENT_SET_NO = 999
REV_AT_EPOCH   = 14227
BSTAR          = .72881332E-4
MEAN_MOTION_DOT = .193E-5
MEAN_MOTION_DDOT = 0

CCSDS_OMM_VERS = 2.0
CREATION_DATE  = 
ORIGINATOR     = 

OBJECT_NAME    = SL-12 R/B(2)
OBJECT_ID      = 1985-042D
CENTER_NAME    = EARTH
REF_FRAME      = TEME
TIME_SYSTEM    = UTC
MEAN_ELEMENT_THEORY = SGP/SGP4

EPOCH          = 2025-12-17T21:10:42.770208
MEAN_MOTION    = 14.21953466
ECCENTRICITY   = .00374695
INCLINATION    = 71.1080
RA_OF_ASC_NODE = 260.5557
ARG_OF_PERICENTER = 253.9940
MEAN_ANOMALY   = 173.1144

EPHEMERIS_TYPE = 0
CLASSIFICATION_TYPE = U
NORAD_CAT_ID   = 15772
ELEMENT_SET_NO = 999
REV_AT_EPOCH   = 10276
BSTAR          = .6825537E-4
MEAN_MOTION_DOT = .104E-5
MEAN_MOTION_DDOT = 0

CCSDS_OMM_VERS = 2.0
CREATION_DATE  = 
ORIGINATOR     = 

OBJECT_NAME    = SL-14 R/B
OBJECT_ID      = 1985-069B
CENTER_NAME    = EARTH
REF_FRAME      = TEME
TIME_SYSTEM    = UTC
MEAN_ELEMENT_THEORY = SGP/SGP4

EPOCH          = 2025-12-17T18:00:51.915168
MEAN_MOTION    = 14.86330407
ECCENTRICITY   = .00203246
INCLINATION    = 82.5272
RA_OF_ASC_NODE = 101.9923
ARG_OF_PERICENTER = 103.0757
MEAN_ANOMALY   = 257.2730

EPHEMERIS_TYPE = 0
CLASSIFICATION_TYPE = U
NORAD_CAT_ID   = 15945
ELEMENT_SET_NO = 999
REV_AT_EPOCH   = 16066
BSTAR          = .49246425E-4
MEAN_MOTION_DOT = .46E-5
MEAN_MOTION_DDOT = 0

CCSDS_OMM_VERS = 2.0
CREATION_DATE  = 
ORIGINATOR     = 

OBJECT_NAME    = SL-16 R/B
OBJECT_ID      = 1985-097B
CENTER_NAME    = EARTH
REF_FRAME      = TEME
TIME_SYSTEM    = UTC
MEAN_ELEMENT_THEORY = SGP/SGP4

EPOCH          = 2025-12-17T22:25:22.408032
MEAN_MOTION    = 14.16587110
ECCENTRICITY   = .00070409
INCLINATION    = 71.0037
RA_OF_ASC_NODE = 312.6669
ARG_OF_PERICENTER = 2.4803
MEAN_ANOMALY   = 58.6525

EPHEMERIS_TYPE = 0
CLASSIFICATION_TYPE = U
NORAD_CAT_ID   = 16182
ELEMENT_SET_NO = 999
REV_AT_EPOCH   = 7565
BSTAR          = .10134698E-3
MEAN_MOTION_DOT = .154E-5
MEAN_MOTION_DDOT = 0

CCSDS_OMM_VERS = 2.0
CREATION_DATE  = 
ORIGINATOR     = 

OBJECT_NAME    = SL-14 R/B
OBJECT_ID      = 1986-006B
CENTER_NAME    = EARTH
REF_FRAME      = TEME
TIME_SYSTEM    = UTC
MEAN_ELEMENT_THEORY = SGP/SGP4

EPOCH          = 2025-12-17T16:20:05.080704
MEAN_MOTION    = 14.86678145
ECCENTRICITY   = .00765929
INCLINATION    = 82.5266
RA_OF_ASC_NODE = 336.9017
ARG_OF_PERICENTER = 183.3468
MEAN_ANOMALY   = 176.7248

EPHEMERIS_TYPE = 0
CLASSIFICATION_TYPE = U
NORAD_CAT_ID   = 16496
ELEMENT_SET_NO = 999
REV_AT_EPOCH   = 13702
BSTAR          = .52381041E-4
MEAN_MOTION_DOT = .518E-5
MEAN_MOTION_DDOT = 0

CCSDS_OMM_VERS = 2.0
CREATION_DATE  = 
ORIGINATOR     = 

OBJECT_NAME    = COSMOS 1743
OBJECT_ID      = 1986-034A
CENTER_NAME    = EARTH
REF_FRAME      = TEME
TIME_SYSTEM    = UTC
MEAN_ELEMENT_THEORY = SGP/SGP4

EPOCH          = 2025-12-17T21:01:20.278560
MEAN_MOTION    = 15.52435867
ECCENTRICITY   = .00047564
INCLINATION    = 82.5339
RA_OF_ASC_NODE = 159.2554
ARG_OF_PERICENTER = 231.1924
MEAN_ANOMALY   = 128.8904

EPHEMERIS_TYPE = 0
CLASSIFICATION_TYPE = U
NORAD_CAT_ID   = 16719
ELEMENT_SET_NO = 999
REV_AT_EPOCH   = 16753
BSTAR          = .43168994E-3
MEAN_MOTION_DOT = .26463E-3
MEAN_MOTION_DDOT = 0

